From: horizons@ssd.jpl.nasa.gov (Horizons Ephemeris System)
Subject: [Horizons] SMALL BODY #C(500@10)_T(PANSTARRS (P/2013 W1)) (1/1)
Date: March 1, 2021 at 1:23:19 PM PST

Automated mail xmit by MAIL_REQUEST, PID= 2301 Mon Mar  1 13:23:19 2021
++++++++++++++++++++++++++++++++ (part 1 of 1)  +++++++++++++++++++++++++++++++
*******************************************************************************
JPL/HORIZONS                PANSTARRS (P/2013 W1)          2021-Mar-01 13:23:18
Rec #:90004129 (+COV) Soln.date: 2015-Jan-07_23:42:10    # obs: 105 (2013-2014)

IAU76/J2000 helio. ecliptic osc. elements (au, days, deg., period=Julian yrs):

 EPOCH=  2456647.5 ! 2013-Dec-21.0000000 (TDB)    RMSW= n.a.
  EC= .5938775800982816   QR= 1.415611568909651   TP= 2456724.6759456107
  OM= 117.8560792780611   W= 1.327165900329637    IN= 4.699493898213464
  A= 3.485676977036208    MA= 348.3115929785331   ADIST= 5.555742385162764
  PER= 6.5078707829675    N= .151451422           ANGMOM= .025839314
  DAN= 1.41575            DDN= 5.55356            L= 119.178785
  B= .1087247             MOID= .431638           TP= 2014-Mar-08.1759456107

Comet physical (GM= km^3/s^2; RAD= km):
  GM= n.a.                RAD= n.a.
  M1=  16.5     M2=  19.8     k1=  16.    k2=  5.      PHCOF=  .030

COMET comments 
1: soln ref.= JPL#16, data arc: 2013-11-09 to 2014-03-03
2: k1=16., k2=5., phase coef.=0.03;
*******************************************************************************


*******************************************************************************
Ephemeris / MAIL_REQUEST Mon Mar  1 13:23:19 2021 Pasadena, USA  / Horizons
*******************************************************************************
Target body name: PANSTARRS (P/2013 W1)           {source: JPL#16}
Center body name: Sun (10)                        {source: DE431}
Center-site name: BODY CENTER
*******************************************************************************
Start time      : A.D. 1990-Jan-01 00:00:00.0000 TDB
Stop  time      : A.D. 2020-Dec-31 00:00:00.0000 TDB
Step-size       : 10080 minutes
*******************************************************************************
Center geodetic : 0.00000000,0.00000000,0.0000000 {E-lon(deg),Lat(deg),Alt(km)}
Center cylindric: 0.00000000,0.00000000,0.0000000 {E-lon(deg),Dxy(km),Dz(km)}
Center radii    : 696000.0 x 696000.0 x 696000.0 k{Equator, meridian, pole}    
Small perturbers: Yes                             {source: SB431-N16}
Output units    : AU-D
Output type     : GEOMETRIC cartesian states
Output format   : 6 (LT, range, and range-rate)
Reference frame : Ecliptic of J2000.0
*******************************************************************************
Initial IAU76/J2000 heliocentric ecliptic osculating elements (au, days, deg.):
 EPOCH=  2456647.5 ! 2013-Dec-21.0000000 (TDB)    RMSW= n.a.                  
  EC= .5938775800982816   QR= 1.415611568909651   TP= 2456724.6759456107      
  OM= 117.8560792780611   W= 1.327165900329637    IN= 4.699493898213464       
 Equivalent ICRF heliocentric equatorial cartesian coordinates (au, au/d):
  X= 6.177016170837496E-01  Y= 1.437698263115268E+00  Z= 5.106584066060215E-01
 VX=-1.650014994458364E-02 VY= 4.834712378559737E-04 VZ= 1.473595577055201E-03
Comet physical (GM= km^3/s^2; RAD= km):                                        
  GM= n.a.                RAD= n.a.                                           
  M1=  16.5     M2=  19.8     k1=  16.    k2=  5.      PHCOF=  .030           
*******************************************************************************
           JDTDB,            Calendar Date (TDB),                     LT,                     RG,                     RR,
**************************************************************************************************************************
$$SOE
2458392.500000000, A.D. 2018-Oct-01 00:00:00.0000,  2.821901011092776E-02,  4.885970140087261E+00, -2.873413608297902E-03,
2458399.500000000, A.D. 2018-Oct-08 00:00:00.0000,  2.810189780605610E-02,  4.865692773078626E+00, -2.920156367777503E-03,
2458406.500000000, A.D. 2018-Oct-15 00:00:00.0000,  2.798289129780793E-02,  4.845087434922152E+00, -2.967120282035399E-03,
2458413.500000000, A.D. 2018-Oct-22 00:00:00.0000,  2.786198156763254E-02,  4.824152564104192E+00, -3.014309211842592E-03,
2458420.500000000, A.D. 2018-Oct-29 00:00:00.0000,  2.773915943815424E-02,  4.802886571611404E+00, -3.061727150282375E-03,
2458427.500000000, A.D. 2018-Nov-05 00:00:00.0000,  2.761441556830818E-02,  4.781287840088543E+00, -3.109378195142935E-03,
2458434.500000000, A.D. 2018-Nov-12 00:00:00.0000,  2.748774045043467E-02,  4.759354723335369E+00, -3.157266466572194E-03,
2458441.500000000, A.D. 2018-Nov-19 00:00:00.0000,  2.735912441381687E-02,  4.737085546919164E+00, -3.205395842058398E-03,
2458448.500000000, A.D. 2018-Nov-26 00:00:00.0000,  2.722855764411059E-02,  4.714478611538907E+00, -3.253769487405519E-03,
2458455.500000000, A.D. 2018-Dec-03 00:00:00.0000,  2.709603020765697E-02,  4.691532197234887E+00, -3.302390453449757E-03,
2458462.500000000, A.D. 2018-Dec-10 00:00:00.0000,  2.696153200926038E-02,  4.668244556078162E+00, -3.351263936095940E-03,
2458469.500000000, A.D. 2018-Dec-17 00:00:00.0000,  2.682505271116217E-02,  4.644613898141309E+00, -3.400396217764608E-03,
2458476.500000000, A.D. 2018-Dec-24 00:00:00.0000,  2.668658174204952E-02,  4.620638393058254E+00, -3.449792465090890E-03,
2458483.500000000, A.D. 2018-Dec-31 00:00:00.0000,  2.654610833928133E-02,  4.596316177335455E+00, -3.499457122667834E-03,
2458490.500000000, A.D. 2019-Jan-07 00:00:00.0000,  2.640362156385507E-02,  4.571645356943338E+00, -3.549394523627973E-03,
2458497.500000000, A.D. 2019-Jan-14 00:00:00.0000,  2.625911030098700E-02,  4.546624007416757E+00, -3.599609034327728E-03,
2458504.500000000, A.D. 2019-Jan-21 00:00:00.0000,  2.611256325888478E-02,  4.521250173642470E+00, -3.650105038585265E-03,
2458511.500000000, A.D. 2019-Jan-28 00:00:00.0000,  2.596396896889953E-02,  4.495521869885483E+00, -3.700886893376720E-03,
2458518.500000000, A.D. 2019-Feb-04 00:00:00.0000,  2.581331578779889E-02,  4.469437080182607E+00, -3.751958863384269E-03,
2458525.500000000, A.D. 2019-Feb-11 00:00:00.0000,  2.566059190416202E-02,  4.442993759449719E+00, -3.803324961803833E-03,
2458532.500000000, A.D. 2019-Feb-18 00:00:00.0000,  2.550578535590499E-02,  4.416189836516188E+00, -3.854988531080127E-03,
2458539.500000000, A.D. 2019-Feb-25 00:00:00.0000,  2.534888406782709E-02,  4.389023220625825E+00, -3.906951842909426E-03,
2458546.500000000, A.D. 2019-Mar-04 00:00:00.0000,  2.518987587400627E-02,  4.361491805314525E+00, -3.959217568546228E-03,
2458553.500000000, A.D. 2019-Mar-11 00:00:00.0000,  2.502874845785406E-02,  4.333593458031101E+00, -4.011790399443828E-03,
2458560.500000000, A.D. 2019-Mar-18 00:00:00.0000,  2.486548930916843E-02,  4.305326012701219E+00, -4.064674756440784E-03,
2458567.500000000, A.D. 2019-Mar-25 00:00:00.0000,  2.470008576912689E-02,  4.276687277517707E+00, -4.117873629078822E-03,
2458574.500000000, A.D. 2019-Apr-01 00:00:00.0000,  2.453252507576019E-02,  4.247675042814088E+00, -4.171389238590150E-03,
2458581.500000000, A.D. 2019-Apr-08 00:00:00.0000,  2.436279438563623E-02,  4.218287084819032E+00, -4.225223419372515E-03,
2458588.500000000, A.D. 2019-Apr-15 00:00:00.0000,  2.419088078786554E-02,  4.188521168081317E+00, -4.279377671335528E-03,
2458595.500000000, A.D. 2019-Apr-22 00:00:00.0000,  2.401677131826190E-02,  4.158375047921687E+00, -4.333853122798981E-03,
2458602.500000000, A.D. 2019-Apr-29 00:00:00.0000,  2.384045297547621E-02,  4.127846473226328E+00, -4.388650472491055E-03,
2458609.500000000, A.D. 2019-May-06 00:00:00.0000,  2.366191274012198E-02,  4.096933189758349E+00, -4.443769889625212E-03,
2458616.500000000, A.D. 2019-May-13 00:00:00.0000,  2.348113760058807E-02,  4.065632944627115E+00, -4.499210751261472E-03,
2458623.500000000, A.D. 2019-May-20 00:00:00.0000,  2.329811459608059E-02,  4.033943493740733E+00, -4.554971049912809E-03,
2458630.500000000, A.D. 2019-May-27 00:00:00.0000,  2.311283087948333E-02,  4.001862612689981E+00, -4.611047342697234E-03,
2458637.500000000, A.D. 2019-Jun-03 00:00:00.0000,  2.292527373637770E-02,  3.969388100041526E+00, -4.667436927013287E-03,
2458644.500000000, A.D. 2019-Jun-10 00:00:00.0000,  2.273543053546074E-02,  3.936517768753057E+00, -4.724137991607735E-03,
2458651.500000000, A.D. 2019-Jun-17 00:00:00.0000,  2.254328874680551E-02,  3.903249449334977E+00, -4.781147057684348E-03,
2458658.500000000, A.D. 2019-Jun-24 00:00:00.0000,  2.234883602277615E-02,  3.869581003860407E+00, -4.838458685595465E-03,
2458665.500000000, A.D. 2019-Jul-01 00:00:00.0000,  2.215206026594624E-02,  3.835510337724896E+00, -4.896065989001718E-03,
2458672.500000000, A.D. 2019-Jul-08 00:00:00.0000,  2.195294968415885E-02,  3.801035409179764E+00, -4.953960744882136E-03,
2458679.500000000, A.D. 2019-Jul-15 00:00:00.0000,  2.175149284644487E-02,  3.766154239014064E+00, -5.012133282009333E-03,
2458686.500000000, A.D. 2019-Jul-22 00:00:00.0000,  2.154767874505014E-02,  3.730864921294244E+00, -5.070572302555159E-03,
2458693.500000000, A.D. 2019-Jul-29 00:00:00.0000,  2.134149686542440E-02,  3.695165635482360E+00, -5.129264664860591E-03,
2458700.500000000, A.D. 2019-Aug-05 00:00:00.0000,  2.113293726650125E-02,  3.659054660336123E+00, -5.188195073802161E-03,
2458707.500000000, A.D. 2019-Aug-12 00:00:00.0000,  2.092199067828236E-02,  3.622530390805081E+00, -5.247345490115635E-03,
2458714.500000000, A.D. 2019-Aug-19 00:00:00.0000,  2.070864863147047E-02,  3.585591360475865E+00, -5.306694209277220E-03,
2458721.500000000, A.D. 2019-Aug-26 00:00:00.0000,  2.049290360644826E-02,  3.548236267367100E+00, -5.366216275513684E-03,
2458728.500000000, A.D. 2019-Sep-02 00:00:00.0000,  2.027474912076113E-02,  3.510463989076563E+00, -5.425885474692245E-03,
2458735.500000000, A.D. 2019-Sep-09 00:00:00.0000,  2.005417979927447E-02,  3.472273594928549E+00, -5.485672686018434E-03,
